{"type": "FeatureCollection", "features": [ {"type": "Feature", "properties": {"norad_id": 66558, "name": "STARLINK-35695", "group": "last-30-days", "lat": 4.707636622507144, "lon": -65.08297615354364, "alt_km": 414.65430161645963, "timestamp": "2025-12-12T22:42:11.306019+00:00", "meta": {"OBJECT_NAME": "STARLINK-35695", "OBJECT_ID": "2025-268B", "EPOCH": "2025-12-12T06:00:00.999648", "MEAN_MOTION": 15.50629983, "ECCENTRICITY": 0.00033455, "INCLINATION": 43, "RA_OF_ASC_NODE": 124.0586, "ARG_OF_PERICENTER": 263.4091, "MEAN_ANOMALY": 340.1623, "EPHEMERIS_TYPE": 0, "CLASSIFICATION_TYPE": "U", "NORAD_CAT_ID": 66558, "ELEMENT_SET_NO": 999, "REV_AT_EPOCH": 458, "BSTAR": -0.0017781995, "MEAN_MOTION_DOT": -0.00103507, "MEAN_MOTION_DDOT": 0}, "tle": {"line1": "1 66558U 25268B   25346.25001157 -.00103507  00000+0 -17782-2 0  9998", "line2": "2 66558  43.0000 124.0586 0003345 263.4091 340.1623 15.50629983  4589"}}, "geometry": {"type": "Point", "coordinates": [-65.08297615354364, 4.707636622507144]}}, {"type": "Feature", "properties": {"norad_id": 66559, "name": "STARLINK-35419", "group": "last-30-days", "lat": 3.420917565905371, "lon": -63.69610262504207, "alt_km": 413.8267425275253, "timestamp": "2025-12-12T22:42:11.306029+00:00", "meta": {"OBJECT_NAME": "STARLINK-35419", "OBJECT_ID": "2025-268C", "EPOCH": "2025-12-12T06:00:00.999648", "MEAN_MOTION": 15.50460028, "ECCENTRICITY": 0.00027795, "INCLINATION": 43, "RA_OF_ASC_NODE": 124.0534, "ARG_OF_PERICENTER": 247.1836, "MEAN_ANOMALY": 358.3259, "EPHEMERIS_TYPE": 0, "CLASSIFICATION_TYPE": "U", "NORAD_CAT_ID": 66559, "ELEMENT_SET_NO": 999, "REV_AT_EPOCH": 458, "BSTAR": 0.0018702848, "MEAN_MOTION_DOT": 0.00110478, "MEAN_MOTION_DDOT": 0}, "tle": {"line1": "1 66559U 25268C   25346.25001157  .00110478  00000+0  18703-2 0  9996", "line2": "2 66559  43.0000 124.0534 0002779 247.1836 358.3259 15.50460028  4588"}}, "geometry": {"type": "Point", "coordinates": [-63.69610262504207, 3.420917565905371]}}, {"type": "Feature", "properties": {"norad_id": 66560, "name": "STARLINK-35411", "group": "last-30-days", "lat": 2.0597669230873143, "lon": -62.234932121487155, "alt_km": 414.56562006049353, "timestamp": "2025-12-12T22:42:11.306042+00:00", "meta": {"OBJECT_NAME": "STARLINK-35411", "OBJECT_ID": "2025-268D", "EPOCH": "2025-12-12T06:00:00.999648", "MEAN_MOTION": 15.50587704, "ECCENTRICITY": 0.00020275, "INCLINATION": 43, "RA_OF_ASC_NODE": 124.0489, "ARG_OF_PERICENTER": 268.8908, "MEAN_ANOMALY": 338.437, "EPHEMERIS_TYPE": 0, "CLASSIFICATION_TYPE": "U", "NORAD_CAT_ID": 66560, "ELEMENT_SET_NO": 999, "REV_AT_EPOCH": 458, "BSTAR": 0.00042228291, "MEAN_MOTION_DOT": 0.00024517, "MEAN_MOTION_DDOT": 0}, "tle": {"line1": "1 66560U 25268D   25346.25001157  .00024517  00000+0  42228-3 0  9996", "line2": "2 66560  43.0000 124.0489 0002027 268.8908 338.4370 15.50587704  4589"}}, "geometry": {"type": "Point", "coordinates": [-62.234932121487155, 2.0597669230873143]}}, {"type": "Feature", "properties": {"norad_id": 66561, "name": "STARLINK-35305", "group": "last-30-days", "lat": -0.5660646876182874, "lon": -59.42520703608353, "alt_km": 414.81563642428137, "timestamp": "2025-12-12T22:42:11.306052+00:00", "meta": {"OBJECT_NAME": "STARLINK-35305", "OBJECT_ID": "2025-268E", "EPOCH": "2025-12-12T06:00:00.999648", "MEAN_MOTION": 15.5052768, "ECCENTRICITY": 0.00014327, "INCLINATION": 43, "RA_OF_ASC_NODE": 124.039, "ARG_OF_PERICENTER": 268.1561, "MEAN_ANOMALY": 343.1052, "EPHEMERIS_TYPE": 0, "CLASSIFICATION_TYPE": "U", "NORAD_CAT_ID": 66561, "ELEMENT_SET_NO": 999, "REV_AT_EPOCH": 454, "BSTAR": 0.0010326814, "MEAN_MOTION_DOT": 0.000606, "MEAN_MOTION_DDOT": 0}, "tle": {"line1": "1 66561U 25268E   25346.25001157  .00060600  00000+0  10327-2 0  9994", "line2": "2 66561  43.0000 124.0390 0001432 268.1561 343.1052 15.50527680  4541"}}, "geometry": {"type": "Point", "coordinates": [-59.42520703608353, -0.5660646876182874]}}, {"type": "Feature", "properties": {"norad_id": 66562, "name": "STARLINK-35579", "group": "last-30-days", "lat": 0.7343387877686095, "lon": -60.81652269127881, "alt_km": 414.69021373795476, "timestamp": "2025-12-12T22:42:11.306061+00:00", "meta": {"OBJECT_NAME": "STARLINK-35579", "OBJECT_ID": "2025-268F", "EPOCH": "2025-12-12T06:00:00.999648", "MEAN_MOTION": 15.5052748, "ECCENTRICITY": 0.0001536, "INCLINATION": 43.0003, "RA_OF_ASC_NODE": 124.0433, "ARG_OF_PERICENTER": 270.4844, "MEAN_ANOMALY": 338.8567, "EPHEMERIS_TYPE": 0, "CLASSIFICATION_TYPE": "U", "NORAD_CAT_ID": 66562, "ELEMENT_SET_NO": 999, "REV_AT_EPOCH": 458, "BSTAR": 0.0011745339, "MEAN_MOTION_DOT": 0.00069046, "MEAN_MOTION_DDOT": 0}, "tle": {"line1": "1 66562U 25268F   25346.25001157  .00069046  00000+0  11745-2 0  9993", "line2": "2 66562  43.0003 124.0433 0001536 270.4844 338.8567 15.50527480  4582"}}, "geometry": {"type": "Point", "coordinates": [-60.81652269127881, 0.7343387877686095]}}, {"type": "Feature", "properties": {"norad_id": 66563, "name": "STARLINK-35437", "group": "last-30-days", "lat": -1.8737624677039584, "lon": -58.02579118726639, "alt_km": 414.9650524200615, "timestamp": "2025-12-12T22:42:11.306071+00:00", "meta": {"OBJECT_NAME": "STARLINK-35437", "OBJECT_ID": "2025-268G", "EPOCH": "2025-12-12T06:00:00.999648", "MEAN_MOTION": 15.50531228, "ECCENTRICITY": 0.00016035, "INCLINATION": 43, "RA_OF_ASC_NODE": 124.034, "ARG_OF_PERICENTER": 269.4606, "MEAN_ANOMALY": 343.7123, "EPHEMERIS_TYPE": 0, "CLASSIFICATION_TYPE": "U", "NORAD_CAT_ID": 66563, "ELEMENT_SET_NO": 999, "REV_AT_EPOCH": 458, "BSTAR": 0.0010330952, "MEAN_MOTION_DOT": 0.00060633, "MEAN_MOTION_DDOT": 0}, "tle": {"line1": "1 66563U 25268G   25346.25001157  .00060633  00000+0  10331-2 0  9997", "line2": "2 66563  43.0000 124.0340 0001603 269.4606 343.7123 15.50531228  4584"}}, "geometry": {"type": "Point", "coordinates": [-58.02579118726639, -1.8737624677039584]}}, {"type": "Feature", "properties": {"norad_id": 66564, "name": "STARLINK-35358", "group": "last-30-days", "lat": -3.1779173085554344, "lon": -56.62624940127457, "alt_km": 415.09964846970615, "timestamp": "2025-12-12T22:42:11.306084+00:00", "meta": {"OBJECT_NAME": "STARLINK-35358", "OBJECT_ID": "2025-268H", "EPOCH": "2025-12-12T06:00:00.999648", "MEAN_MOTION": 15.50560054, "ECCENTRICITY": 0.00015075, "INCLINATION": 42.9998, "RA_OF_ASC_NODE": 124.0296, "ARG_OF_PERICENTER": 264.8693, "MEAN_ANOMALY": 350.2181, "EPHEMERIS_TYPE": 0, "CLASSIFICATION_TYPE": "U", "NORAD_CAT_ID": 66564, "ELEMENT_SET_NO": 999, "REV_AT_EPOCH": 454, "BSTAR": 0.00032177849, "MEAN_MOTION_DOT": 0.00018568, "MEAN_MOTION_DDOT": 0}, "tle": {"line1": "1 66564U 25268H   25346.25001157  .00018568  00000+0  32178-3 0  9992", "line2": "2 66564  42.9998 124.0296 0001507 264.8693 350.2181 15.50560054  4549"}}, "geometry": {"type": "Point", "coordinates": [-56.62624940127457, -3.1779173085554344]}}, {"type": "Feature", "properties": {"norad_id": 66565, "name": "STARLINK-35893", "group": "last-30-days", "lat": -4.472450232609397, "lon": -55.232195375444405, "alt_km": 415.25304072630206, "timestamp": "2025-12-12T22:42:11.306095+00:00", "meta": {"OBJECT_NAME": "STARLINK-35893", "OBJECT_ID": "2025-268J", "EPOCH": "2025-12-12T06:00:00.999648", "MEAN_MOTION": 15.50570203, "ECCENTRICITY": 0.00015308, "INCLINATION": 42.9999, "RA_OF_ASC_NODE": 124.0245, "ARG_OF_PERICENTER": 263.2072, "MEAN_ANOMALY": 353.797, "EPHEMERIS_TYPE": 0, "CLASSIFICATION_TYPE": "U", "NORAD_CAT_ID": 66565, "ELEMENT_SET_NO": 999, "REV_AT_EPOCH": 458, "BSTAR": -5.0951517e-05, "MEAN_MOTION_DOT": -3.328e-05, "MEAN_MOTION_DDOT": 0}, "tle": {"line1": "1 66565U 25268J   25346.25001157 -.00003328  00000+0 -50952-4 0  9994", "line2": "2 66565  42.9999 124.0245 0001530 263.2072 353.7970 15.50570203  4580"}}, "geometry": {"type": "Point", "coordinates": [-55.232195375444405, -4.472450232609397]}}, {"type": "Feature", "properties": {"norad_id": 66566, "name": "STARLINK-35871", "group": "last-30-days", "lat": -5.7745678605198405, "lon": -53.822156022814276, "alt_km": 415.6831691033494, "timestamp": "2025-12-12T22:42:11.306105+00:00", "meta": {"OBJECT_NAME": "STARLINK-35871", "OBJECT_ID": "2025-268K", "EPOCH": "2025-12-12T06:00:00.999648", "MEAN_MOTION": 15.505754, "ECCENTRICITY": 0.00015838, "INCLINATION": 43, "RA_OF_ASC_NODE": 124.0194, "ARG_OF_PERICENTER": 284.5211, "MEAN_ANOMALY": 334.3613, "EPHEMERIS_TYPE": 0, "CLASSIFICATION_TYPE": "U", "NORAD_CAT_ID": 66566, "ELEMENT_SET_NO": 999, "REV_AT_EPOCH": 458, "BSTAR": 0.00022536915, "MEAN_MOTION_DOT": 0.000129, "MEAN_MOTION_DDOT": 0}, "tle": {"line1": "1 66566U 25268K   25346.25001157  .00012900  00000+0  22537-3 0  9996", "line2": "2 66566  43.0000 124.0194 0001583 284.5211 334.3613 15.50575400  4581"}}, "geometry": {"type": "Point", "coordinates": [-53.822156022814276, -5.7745678605198405]}}, {"type": "Feature", "properties": {"norad_id": 66567, "name": "STARLINK-35825", "group": "last-30-days", "lat": -7.085015063089744, "lon": -52.391884732188394, "alt_km": 415.4569735465511, "timestamp": "2025-12-12T22:42:11.306115+00:00", "meta": {"OBJECT_NAME": "STARLINK-35825", "OBJECT_ID": "2025-268L", "EPOCH": "2025-12-12T06:00:00.999648", "MEAN_MOTION": 15.50523718, "ECCENTRICITY": 0.00013168, "INCLINATION": 43, "RA_OF_ASC_NODE": 124.0148, "ARG_OF_PERICENTER": 268.7934, "MEAN_ANOMALY": 352.0577, "EPHEMERIS_TYPE": 0, "CLASSIFICATION_TYPE": "U", "NORAD_CAT_ID": 66567, "ELEMENT_SET_NO": 999, "REV_AT_EPOCH": 458, "BSTAR": 0.0011524317, "MEAN_MOTION_DOT": 0.00067719, "MEAN_MOTION_DDOT": 0}, "tle": {"line1": "1 66567U 25268L   25346.25001157  .00067719  00000+0  11524-2 0  9998", "line2": "2 66567  43.0000 124.0148 0001316 268.7934 352.0577 15.50523718  4582"}}, "geometry": {"type": "Point", "coordinates": [-52.391884732188394, -7.085015063089744]}}]}